[{"OBJECT_NAME":"GOES 1 (SMS-C)","OBJECT_ID":"1975-100A","EPOCH":"2026-03-05T13:25:22.477152","MEAN_MOTION":1.00237662,"ECCENTRICITY":0.00054028,"INCLINATION":4.8717,"RA_OF_ASC_NODE":278.7366,"ARG_OF_PERICENTER":0.0147,"MEAN_ANOMALY":325.0914,"EPHEMERIS_TYPE":0,"CLASSIFICATION_TYPE":"U","NORAD_CAT_ID":8366,"ELEMENT_SET_NO":999,"REV_AT_EPOCH":18402,"BSTAR":0,"MEAN_MOTION_DOT":4.0e-8,"MEAN_MOTION_DDOT":0},{"OBJECT_NAME":"GOES 2","OBJECT_ID":"1977-048A","EPOCH":"2026-03-05T14:31:46.110720","MEAN_MOTION":0.99396652,"ECCENTRICITY":0.00138961,"INCLINATION":6.6664,"RA_OF_ASC_NODE":294.2104,"ARG_OF_PERICENTER":47.7608,"MEAN_ANOMALY":151.1561,"EPHEMERIS_TYPE":0,"CLASSIFICATION_TYPE":"U","NORAD_CAT_ID":10061,"ELEMENT_SET_NO":999,"REV_AT_EPOCH":4524,"BSTAR":0,"MEAN_MOTION_DOT":-2.35e-6,"MEAN_MOTION_DDOT":0},{"OBJECT_NAME":"GOES 3","OBJECT_ID":"1978-062A","EPOCH":"2026-03-05T09:36:05.578848","MEAN_MOTION":0.99365983,"ECCENTRICITY":0.00027558,"INCLINATION":7.1366,"RA_OF_ASC_NODE":300.0418,"ARG_OF_PERICENTER":355.7682,"MEAN_ANOMALY":166.5519,"EPHEMERIS_TYPE":0,"CLASSIFICATION_TYPE":"U","NORAD_CAT_ID":10953,"ELEMENT_SET_NO":999,"REV_AT_EPOCH":12750,"BSTAR":0,"MEAN_MOTION_DOT":-2.92e-6,"MEAN_MOTION_DDOT":0},{"OBJECT_NAME":"GOES 4","OBJECT_ID":"1980-074A","EPOCH":"2026-03-05T12:01:00.567264","MEAN_MOTION":0.99230664,"ECCENTRICITY":0.00321126,"INCLINATION":8.2099,"RA_OF_ASC_NODE":303.7237,"ARG_OF_PERICENTER":103.0559,"MEAN_ANOMALY":240.2129,"EPHEMERIS_TYPE":0,"CLASSIFICATION_TYPE":"U","NORAD_CAT_ID":11964,"ELEMENT_SET_NO":999,"REV_AT_EPOCH":12640,"BSTAR":0,"MEAN_MOTION_DOT":-2.22e-6,"MEAN_MOTION_DDOT":0},{"OBJECT_NAME":"GOES 5","OBJECT_ID":"1981-049A","EPOCH":"2026-03-05T05:01:01.951104","MEAN_MOTION":1.00211327,"ECCENTRICITY":0.00046559,"INCLINATION":9.5445,"RA_OF_ASC_NODE":316.3375,"ARG_OF_PERICENTER":337.1778,"MEAN_ANOMALY":215.8746,"EPHEMERIS_TYPE":0,"CLASSIFICATION_TYPE":"U","NORAD_CAT_ID":12472,"ELEMENT_SET_NO":999,"REV_AT_EPOCH":12180,"BSTAR":0,"MEAN_MOTION_DOT":-2.0e-6,"MEAN_MOTION_DDOT":0},{"OBJECT_NAME":"GOES 6","OBJECT_ID":"1983-041A","EPOCH":"2026-03-05T06:37:45.178176","MEAN_MOTION":1.00217783,"ECCENTRICITY":0.00023434,"INCLINATION":10.3561,"RA_OF_ASC_NODE":321.8949,"ARG_OF_PERICENTER":307.0066,"MEAN_ANOMALY":243.8951,"EPHEMERIS_TYPE":0,"CLASSIFICATION_TYPE":"U","NORAD_CAT_ID":14050,"ELEMENT_SET_NO":999,"REV_AT_EPOCH":21497,"BSTAR":0,"MEAN_MOTION_DOT":-7.5e-7,"MEAN_MOTION_DDOT":0},{"OBJECT_NAME":"GOES 7","OBJECT_ID":"1987-022A","EPOCH":"2026-03-05T08:13:28.499808","MEAN_MOTION":0.99895004,"ECCENTRICITY":0.00039612,"INCLINATION":13.02,"RA_OF_ASC_NODE":338.3678,"ARG_OF_PERICENTER":14.8217,"MEAN_ANOMALY":158.7836,"EPHEMERIS_TYPE":0,"CLASSIFICATION_TYPE":"U","NORAD_CAT_ID":17561,"ELEMENT_SET_NO":999,"REV_AT_EPOCH":12592,"BSTAR":0,"MEAN_MOTION_DOT":8.0e-7,"MEAN_MOTION_DDOT":0},{"OBJECT_NAME":"GOES 8","OBJECT_ID":"1994-022A","EPOCH":"2026-03-04T16:19:38.720928","MEAN_MOTION":0.98908236,"ECCENTRICITY":0.00050105,"INCLINATION":14.3407,"RA_OF_ASC_NODE":14.4681,"ARG_OF_PERICENTER":14.3088,"MEAN_ANOMALY":185.1946,"EPHEMERIS_TYPE":0,"CLASSIFICATION_TYPE":"U","NORAD_CAT_ID":23051,"ELEMENT_SET_NO":999,"REV_AT_EPOCH":12309,"BSTAR":0,"MEAN_MOTION_DOT":-2.57e-6,"MEAN_MOTION_DDOT":0},{"OBJECT_NAME":"GOES 9","OBJECT_ID":"1995-025A","EPOCH":"2026-03-05T08:27:19.672128","MEAN_MOTION":0.98798433,"ECCENTRICITY":0.0003609,"INCLINATION":13.8707,"RA_OF_ASC_NODE":15.3064,"ARG_OF_PERICENTER":210.8477,"MEAN_ANOMALY":338.5961,"EPHEMERIS_TYPE":0,"CLASSIFICATION_TYPE":"U","NORAD_CAT_ID":23581,"ELEMENT_SET_NO":999,"REV_AT_EPOCH":11173,"BSTAR":0,"MEAN_MOTION_DOT":-6.0e-7,"MEAN_MOTION_DDOT":0},{"OBJECT_NAME":"GOES 10","OBJECT_ID":"1997-019A","EPOCH":"2026-03-05T09:17:59.815104","MEAN_MOTION":0.99122042,"ECCENTRICITY":0.00309972,"INCLINATION":13.0052,"RA_OF_ASC_NODE":21.8402,"ARG_OF_PERICENTER":239.2527,"MEAN_ANOMALY":133.5205,"EPHEMERIS_TYPE":0,"CLASSIFICATION_TYPE":"U","NORAD_CAT_ID":24786,"ELEMENT_SET_NO":999,"REV_AT_EPOCH":10504,"BSTAR":0,"MEAN_MOTION_DOT":-5.8e-7,"MEAN_MOTION_DDOT":0},{"OBJECT_NAME":"GOES 11","OBJECT_ID":"2000-022A","EPOCH":"2026-03-05T10:11:26.073312","MEAN_MOTION":0.99040604,"ECCENTRICITY":0.00059315,"INCLINATION":11.5825,"RA_OF_ASC_NODE":47.4337,"ARG_OF_PERICENTER":254.8596,"MEAN_ANOMALY":293.2515,"EPHEMERIS_TYPE":0,"CLASSIFICATION_TYPE":"U","NORAD_CAT_ID":26352,"ELEMENT_SET_NO":999,"REV_AT_EPOCH":5144,"BSTAR":0,"MEAN_MOTION_DOT":-8.7e-7,"MEAN_MOTION_DDOT":0},{"OBJECT_NAME":"GOES 12","OBJECT_ID":"2001-031A","EPOCH":"2026-03-05T08:33:34.073568","MEAN_MOTION":0.99136879,"ECCENTRICITY":0.00087516,"INCLINATION":11.9966,"RA_OF_ASC_NODE":38.1347,"ARG_OF_PERICENTER":296.0625,"MEAN_ANOMALY":253.6596,"EPHEMERIS_TYPE":0,"CLASSIFICATION_TYPE":"U","NORAD_CAT_ID":26871,"ELEMENT_SET_NO":999,"REV_AT_EPOCH":8973,"BSTAR":0,"MEAN_MOTION_DOT":-1.82e-6,"MEAN_MOTION_DDOT":0},{"OBJECT_NAME":"EWS-G1 (GOES 13)","OBJECT_ID":"2006-018A","EPOCH":"2026-03-05T13:26:07.406016","MEAN_MOTION":0.98785208,"ECCENTRICITY":0.00620164,"INCLINATION":4.2639,"RA_OF_ASC_NODE":77.6883,"ARG_OF_PERICENTER":273.1985,"MEAN_ANOMALY":256.6043,"EPHEMERIS_TYPE":0,"CLASSIFICATION_TYPE":"U","NORAD_CAT_ID":29155,"ELEMENT_SET_NO":999,"REV_AT_EPOCH":4222,"BSTAR":0,"MEAN_MOTION_DOT":4.5e-7,"MEAN_MOTION_DDOT":0},{"OBJECT_NAME":"GOES 14","OBJECT_ID":"2009-033A","EPOCH":"2026-03-05T13:14:31.017696","MEAN_MOTION":1.0009961,"ECCENTRICITY":0.00017863,"INCLINATION":1.4223,"RA_OF_ASC_NODE":84.4042,"ARG_OF_PERICENTER":254.4108,"MEAN_ANOMALY":224.2454,"EPHEMERIS_TYPE":0,"CLASSIFICATION_TYPE":"U","NORAD_CAT_ID":35491,"ELEMENT_SET_NO":999,"REV_AT_EPOCH":555,"BSTAR":0,"MEAN_MOTION_DOT":1.18e-6,"MEAN_MOTION_DDOT":0},{"OBJECT_NAME":"EWS-G2 (GOES 15)","OBJECT_ID":"2010-008A","EPOCH":"2026-03-05T14:17:54.940128","MEAN_MOTION":1.00269592,"ECCENTRICITY":0.00019891,"INCLINATION":1.0118,"RA_OF_ASC_NODE":85.1228,"ARG_OF_PERICENTER":18.7322,"MEAN_ANOMALY":337.4215,"EPHEMERIS_TYPE":0,"CLASSIFICATION_TYPE":"U","NORAD_CAT_ID":36411,"ELEMENT_SET_NO":999,"REV_AT_EPOCH":5859,"BSTAR":0,"MEAN_MOTION_DOT":1.4e-7,"MEAN_MOTION_DDOT":0},{"OBJECT_NAME":"GOES 16","OBJECT_ID":"2016-071A","EPOCH":"2026-03-05T13:29:59.535168","MEAN_MOTION":1.00271855,"ECCENTRICITY":0.00024562,"INCLINATION":0.1408,"RA_OF_ASC_NODE":89.6323,"ARG_OF_PERICENTER":220.4706,"MEAN_ANOMALY":310.984,"EPHEMERIS_TYPE":0,"CLASSIFICATION_TYPE":"U","NORAD_CAT_ID":41866,"ELEMENT_SET_NO":999,"REV_AT_EPOCH":3406,"BSTAR":0,"MEAN_MOTION_DOT":-9.8e-7,"MEAN_MOTION_DDOT":0},{"OBJECT_NAME":"GOES 17","OBJECT_ID":"2018-022A","EPOCH":"2026-03-05T13:34:21.615744","MEAN_MOTION":1.00270256,"ECCENTRICITY":0.00021853,"INCLINATION":0.6711,"RA_OF_ASC_NODE":87.53,"ARG_OF_PERICENTER":223.44,"MEAN_ANOMALY":326.4009,"EPHEMERIS_TYPE":0,"CLASSIFICATION_TYPE":"U","NORAD_CAT_ID":43226,"ELEMENT_SET_NO":999,"REV_AT_EPOCH":2938,"BSTAR":0,"MEAN_MOTION_DOT":-1.89e-6,"MEAN_MOTION_DDOT":0}]
