GOES 1 (SMS-C)          
1 08366U 75100A   26064.55928793  .00000004  00000+0  00000+0 0  9994
2 08366   4.8717 278.7366 0005402   0.0147 325.0914  1.00237662184020
GOES 2                  
1 10061U 77048A   26064.60539480 -.00000235  00000+0  00000+0 0  9996
2 10061   6.6664 294.2104 0013896  47.7608 151.1561  0.99396652 45243
GOES 3                  
1 10953U 78062A   26064.40006457 -.00000292  00000+0  00000+0 0  9997
2 10953   7.1366 300.0418 0002755 355.7682 166.5519  0.99365983127504
GOES 4                  
1 11964U 80074A   26064.50070101 -.00000222  00000+0  00000+0 0  9997
2 11964   8.2099 303.7237 0032112 103.0559 240.2129  0.99230664126400
GOES 5                  
1 12472U 81049A   26064.20905036 -.00000200  00000+0  00000+0 0  9992
2 12472   9.5445 316.3375 0004655 337.1778 215.8746  1.00211327121801
GOES 6                  
1 14050U 83041A   26064.27621734 -.00000075  00000+0  00000+0 0  9997
2 14050  10.3561 321.8949 0002343 307.0066 243.8951  1.00217783214972
GOES 7                  
1 17561U 87022A   26064.34269097  .00000080  00000+0  00000+0 0  9993
2 17561  13.0200 338.3678 0003961  14.8217 158.7836  0.99895004125929
GOES 8                  
1 23051U 94022A   26063.68030927 -.00000257  00000+0  00000+0 0  9993
2 23051  14.3407  14.4681 0005010  14.3088 185.1946  0.98908236123090
GOES 9                  
1 23581U 95025A   26064.35231102 -.00000060  00000+0  00000+0 0  9990
2 23581  13.8707  15.3064 0003609 210.8477 338.5961  0.98798433111732
GOES 10                 
1 24786U 97019A   26064.38749786 -.00000058  00000+0  00000+0 0  9995
2 24786  13.0052  21.8402 0030997 239.2527 133.5205  0.99122042105043
GOES 11                 
1 26352U 00022A   26064.42460733 -.00000087  00000+0  00000+0 0  9993
2 26352  11.5825  47.4337 0005931 254.8596 293.2515  0.99040604 51440
GOES 12                 
1 26871U 01031A   26064.35664437 -.00000182  00000+0  00000+0 0  9995
2 26871  11.9966  38.1347 0008751 296.0625 253.6596  0.99136879 89730
EWS-G1 (GOES 13)        
1 29155U 06018A   26064.55980794  .00000045  00000+0  00000+0 0  9999
2 29155   4.2639  77.6883 0062016 273.1985 256.6043  0.98785208 42220
GOES 14                 
1 35491U 09033A   26064.55174789  .00000118  00000+0  00000+0 0  9999
2 35491   1.4223  84.4042 0001786 254.4108 224.2454  1.00099610  5558
EWS-G2 (GOES 15)        
1 36411U 10008A   26064.59577477  .00000014  00000+0  00000+0 0  9996
2 36411   1.0118  85.1228 0001989  18.7322 337.4215  1.00269592 58590
GOES 16                 
1 41866U 16071A   26064.56249462 -.00000098  00000+0  00000+0 0  9992
2 41866   0.1408  89.6323 0002456 220.4706 310.9840  1.00271855 34066
GOES 17                 
1 43226U 18022A   26064.56552796 -.00000189  00000+0  00000+0 0  9990
2 43226   0.6711  87.5300 0002185 223.4400 326.4009  1.00270256 29387
